{
  "norad_id": 59089,
  "name": "STARLINK-31307",
  "history": [
    {
      "epoch": "2026-03-28T17:13:12.139968",
      "apogee_km": 483.86922062803205,
      "perigee_km": 482.1262179639416,
      "latitude_deg": -18.076449525022102,
      "longitude_deg": 157.78015551972203,
      "semi_major_axis_km": 6861.1347192959865,
      "eccentricity": 0.00012702,
      "inclination_deg": 43.0028,
      "raan_deg": 203.0702,
      "arg_perigee_deg": 208.0858,
      "mean_anomaly_deg": 151.9925,
      "mean_motion_rev_day": 15.27597158
    }
  ]
}